start=new Date('2023-05-18T00:00:00.000Z').valueOf();
sats=[{"REV_AT_EPOCH":"3677","MEAN_ANOMALY":"267.7943","CENTER_NAME":"EARTH","COUNTRY_CODE":"US","ARG_OF_PERICENTER":"92.3163","ECCENTRICITY":"0.00010000","INCLINATION":"53.2155","OBJECT_ID":"2022-119AJ","SEMIMAJOR_AXIS":"6917.842","TLE_LINE2":"2 53918  53.2155 244.7193 0001000  92.3163 267.7943 15.08852631 36774","OBJECT_TYPE":"PAYLOAD","PERIAPSIS":"539.015","TIME_SYSTEM":"UTC","OBJECT_NAME":"STARLINK-5012","ELEMENT_SET_NO":"999","APOAPSIS":"540.399","REF_FRAME":"TEME","NORAD_CAT_ID":"53918","BSTAR":"0.00021029000000","TLE_LINE1":"1 53918U 22119AJ  23137.62049699  .00003062  00000-0  21029-3 0  9990","EPHEMERIS_TYPE":"0","EPOCH":"2023-05-17T14:53:30.939936","MEAN_ELEMENT_THEORY":"SGP4","FILE":"3910633","RA_OF_ASC_NODE":"244.7193","DECAY_DATE":null,"RCS_SIZE":"LARGE","MEAN_MOTION_DOT":"0.00003062","MEAN_MOTION":"15.08852631","GP_ID":"232043970","MEAN_MOTION_DDOT":"0.0000000000000","PERIOD":"95.437","SITE":"AFETR","CLASSIFICATION_TYPE":"U","LAUNCH_DATE":"2022-09-24"},{"MEAN_ELEMENT_THEORY":"SGP4","REF_FRAME":"TEME","NORAD_CAT_ID":"53919","EPOCH":"2023-05-17T14:48:13.103712","EPHEMERIS_TYPE":"0","TLE_LINE1":"1 53919U 22119AK  23137.61681833  .00000859  00000-0  72016-4 0  9996","BSTAR":"0.00007201600000","APOAPSIS":"540.447","ELEMENT_SET_NO":"999","OBJECT_TYPE":"PAYLOAD","OBJECT_NAME":"STARLINK-5023","PERIAPSIS":"539.017","TIME_SYSTEM":"UTC","TLE_LINE2":"2 53919  53.2164 244.6966 0001034  83.5254 276.5856 15.08844400 36778","SEMIMAJOR_AXIS":"6917.867","OBJECT_ID":"2022-119AK","ARG_OF_PERICENTER":"83.5254","COUNTRY_CODE":"US","INCLINATION":"53.2164","ECCENTRICITY":"0.00010340","CENTER_NAME":"EARTH","MEAN_ANOMALY":"276.5856","REV_AT_EPOCH":"3677","LAUNCH_DATE":"2022-09-24","SITE":"AFETR","CLASSIFICATION_TYPE":"U","MEAN_MOTION_DDOT":"0.0000000000000","GP_ID":"232045220","PERIOD":"95.437","MEAN_MOTION":"15.08844400","MEAN_MOTION_DOT":"0.00000859","RCS_SIZE":"LARGE","DECAY_DATE":null,"RA_OF_ASC_NODE":"244.6966","FILE":"3910633"},{"OBJECT_TYPE":"PAYLOAD","PERIAPSIS":"538.972","TIME_SYSTEM":"UTC","OBJECT_NAME":"STARLINK-5025","OBJECT_ID":"2022-119AL","SEMIMAJOR_AXIS":"6917.868","TLE_LINE2":"2 53920  53.2161 244.3542 0001100  89.0534 271.0584 15.08843932 36788","COUNTRY_CODE":"US","ARG_OF_PERICENTER":"89.0534","ECCENTRICITY":"0.00011000","INCLINATION":"53.2161","MEAN_ANOMALY":"271.0584","REV_AT_EPOCH":"3678","CENTER_NAME":"EARTH","MEAN_ELEMENT_THEORY":"SGP4","REF_FRAME":"TEME","NORAD_CAT_ID":"53920","BSTAR":"0.00009449800000","TLE_LINE1":"1 53920U 22119AL  23137.67568886  .00001217  00000-0  94498-4 0  9993","EPHEMERIS_TYPE":"0","EPOCH":"2023-05-17T16:12:59.517504","APOAPSIS":"540.494","ELEMENT_SET_NO":"999","MEAN_MOTION":"15.08843932","MEAN_MOTION_DOT":"0.00001217","RA_OF_ASC_NODE":"244.3542","DECAY_DATE":null,"RCS_SIZE":"LARGE","FILE":"3910633","LAUNCH_DATE":"2022-09-24","SITE":"AFETR","CLASSIFICATION_TYPE":"U","MEAN_MOTION_DDOT":"0.0000000000000","GP_ID":"232044971","PERIOD":"95.437"},{"MEAN_MOTION_DOT":"0.00001309","MEAN_MOTION":"15.08841760","FILE":"3910633","RCS_SIZE":"LARGE","DECAY_DATE":null,"RA_OF_ASC_NODE":"244.6298","LAUNCH_DATE":"2022-09-24","PERIOD":"95.437","GP_ID":"232044219","MEAN_MOTION_DDOT":"0.0000000000000","SITE":"AFETR","CLASSIFICATION_TYPE":"U","SEMIMAJOR_AXIS":"6917.875","TLE_LINE2":"2 53922  53.2158 244.6298 0000576  78.5836 281.5221 15.08841760 36771","OBJECT_ID":"2022-119AN","OBJECT_NAME":"STARLINK-5002","TIME_SYSTEM":"UTC","PERIAPSIS":"539.342","OBJECT_TYPE":"PAYLOAD","CENTER_NAME":"EARTH","REV_AT_EPOCH":"3677","MEAN_ANOMALY":"281.5221","INCLINATION":"53.2158","ECCENTRICITY":"0.00005760","COUNTRY_CODE":"US","ARG_OF_PERICENTER":"78.5836","EPOCH":"2023-05-17T14:32:18.043296","EPHEMERIS_TYPE":"0","TLE_LINE1":"1 53922U 22119AN  23137.60576439  .00001309  00000-0  10029-3 0  9990","BSTAR":"0.00010029000000","NORAD_CAT_ID":"53922","REF_FRAME":"TEME","MEAN_ELEMENT_THEORY":"SGP4","ELEMENT_SET_NO":"999","APOAPSIS":"540.138"},{"FILE":"3910633","RA_OF_ASC_NODE":"244.3769","DECAY_DATE":null,"RCS_SIZE":"LARGE","MEAN_MOTION_DOT":"0.00001148","MEAN_MOTION":"15.08844178","MEAN_MOTION_DDOT":"0.0000000000000","GP_ID":"232044469","PERIOD":"95.437","SITE":"AFETR","CLASSIFICATION_TYPE":"U","LAUNCH_DATE":"2022-09-24","MEAN_ANOMALY":"270.1547","REV_AT_EPOCH":"3678","CENTER_NAME":"EARTH","COUNTRY_CODE":"US","ARG_OF_PERICENTER":"89.9600","ECCENTRICITY":"0.00013510","INCLINATION":"53.2166","OBJECT_ID":"2022-119AP","TLE_LINE2":"2 53923  53.2166 244.3769 0001351  89.9600 270.1547 15.08844178 36780","SEMIMAJOR_AXIS":"6917.868","OBJECT_TYPE":"PAYLOAD","PERIAPSIS":"538.798","TIME_SYSTEM":"UTC","OBJECT_NAME":"STARLINK-5004","ELEMENT_SET_NO":"999","APOAPSIS":"540.667","NORAD_CAT_ID":"53923","REF_FRAME":"TEME","BSTAR":"0.00009017000000","TLE_LINE1":"1 53923U 22119AP  23137.67937543  .00001148  00000-0  90170-4 0  9992","EPOCH":"2023-05-17T16:18:18.037152","EPHEMERIS_TYPE":"0","MEAN_ELEMENT_THEORY":"SGP4"},{"ELEMENT_SET_NO":"999","APOAPSIS":"540.624","TLE_LINE1":"1 53924U 22119AQ  23137.91667824 -.00019150  00000-0 -11884-2 0  9999","BSTAR":"-0.00118840000000","EPHEMERIS_TYPE":"0","EPOCH":"2023-05-17T22:00:00.999936","REF_FRAME":"TEME","NORAD_CAT_ID":"53924","MEAN_ELEMENT_THEORY":"SGP4","MEAN_ANOMALY":"89.5027","REV_AT_EPOCH":"130","CENTER_NAME":"EARTH","ECCENTRICITY":"0.00012580","INCLINATION":"53.2157","ARG_OF_PERICENTER":"87.7519","COUNTRY_CODE":"US","OBJECT_ID":"2022-119AQ","TLE_LINE2":"2 53924  53.2157 238.3874 0001258  87.7519  89.5027 15.08837370  1303","SEMIMAJOR_AXIS":"6917.888","TIME_SYSTEM":"UTC","PERIAPSIS":"538.883","OBJECT_NAME":"STARLINK-5001","OBJECT_TYPE":"PAYLOAD","PERIOD":"95.438","GP_ID":"232044721","MEAN_MOTION_DDOT":"0.0000000000000","CLASSIFICATION_TYPE":"U","SITE":"AFETR","LAUNCH_DATE":"2022-09-24","FILE":"3910633","RA_OF_ASC_NODE":"238.3874","DECAY_DATE":null,"RCS_SIZE":"LARGE","MEAN_MOTION_DOT":"-0.00019150","MEAN_MOTION":"15.08837370"},{"ELEMENT_SET_NO":"999","APOAPSIS":"540.402","BSTAR":"0.00005626200000","TLE_LINE1":"1 53925U 22119AR  23137.59102670  .00000608  00000-0  56262-4 0  9994","EPHEMERIS_TYPE":"0","EPOCH":"2023-05-17T14:11:04.706880","REF_FRAME":"TEME","NORAD_CAT_ID":"53925","MEAN_ELEMENT_THEORY":"SGP4","MEAN_ANOMALY":"273.6482","REV_AT_EPOCH":"3677","CENTER_NAME":"EARTH","ECCENTRICITY":"0.00009550","INCLINATION":"53.2172","COUNTRY_CODE":"US","ARG_OF_PERICENTER":"86.4619","OBJECT_ID":"2022-119AR","SEMIMAJOR_AXIS":"6917.876","TLE_LINE2":"2 53925  53.2172 244.5451 0000955  86.4619 273.6482 15.08841275 36770","PERIAPSIS":"539.081","TIME_SYSTEM":"UTC","OBJECT_NAME":"STARLINK-5011","OBJECT_TYPE":"PAYLOAD","PERIOD":"95.437","MEAN_MOTION_DDOT":"0.0000000000000","GP_ID":"232045471","CLASSIFICATION_TYPE":"U","SITE":"AFETR","LAUNCH_DATE":"2022-09-24","FILE":"3910633","RA_OF_ASC_NODE":"244.5451","DECAY_DATE":null,"RCS_SIZE":"LARGE","MEAN_MOTION_DOT":"0.00000608","MEAN_MOTION":"15.08841275"},{"MEAN_ELEMENT_THEORY":"SGP4","EPOCH":"2023-05-17T13:00:13.953888","EPHEMERIS_TYPE":"0","BSTAR":"0.00008157900000","TLE_LINE1":"1 53926U 22119AS  23137.54182817  .00001011  00000-0  81579-4 0  9999","NORAD_CAT_ID":"53926","REF_FRAME":"TEME","APOAPSIS":"540.354","ELEMENT_SET_NO":"999","OBJECT_NAME":"STARLINK-5014","TIME_SYSTEM":"UTC","PERIAPSIS":"539.108","OBJECT_TYPE":"PAYLOAD","SEMIMAJOR_AXIS":"6917.866","TLE_LINE2":"2 53926  53.2155 239.9527 0000901  91.7591 268.3504 15.08844680 36840","OBJECT_ID":"2022-119AS","INCLINATION":"53.2155","ECCENTRICITY":"0.00009010","ARG_OF_PERICENTER":"91.7591","COUNTRY_CODE":"US","CENTER_NAME":"EARTH","MEAN_ANOMALY":"268.3504","REV_AT_EPOCH":"3684","LAUNCH_DATE":"2022-09-24","CLASSIFICATION_TYPE":"U","SITE":"AFETR","PERIOD":"95.437","MEAN_MOTION_DDOT":"0.0000000000000","GP_ID":"232043721","MEAN_MOTION":"15.08844680","MEAN_MOTION_DOT":"0.00001011","DECAY_DATE":null,"RCS_SIZE":"LARGE","RA_OF_ASC_NODE":"239.9527","FILE":"3910633"},{"ELEMENT_SET_NO":"999","APOAPSIS":"540.562","NORAD_CAT_ID":"53927","REF_FRAME":"TEME","TLE_LINE1":"1 53927U 22119AT  23137.56025418  .00001519  00000-0  11350-3 0  9997","BSTAR":"0.00011350000000","EPHEMERIS_TYPE":"0","EPOCH":"2023-05-17T13:26:45.961152","MEAN_ELEMENT_THEORY":"SGP4","REV_AT_EPOCH":"3683","MEAN_ANOMALY":"271.3770","CENTER_NAME":"EARTH","ARG_OF_PERICENTER":"88.7360","COUNTRY_CODE":"US","ECCENTRICITY":"0.00012110","INCLINATION":"53.2154","OBJECT_ID":"2022-119AT","SEMIMAJOR_AXIS":"6917.860","TLE_LINE2":"2 53927  53.2154 240.0781 0001211  88.7360 271.3770 15.08846759 36837","OBJECT_TYPE":"PAYLOAD","TIME_SYSTEM":"UTC","PERIAPSIS":"538.887","OBJECT_NAME":"STARLINK-5008","MEAN_MOTION_DDOT":"0.0000000000000","GP_ID":"232043971","PERIOD":"95.437","SITE":"AFETR","CLASSIFICATION_TYPE":"U","LAUNCH_DATE":"2022-09-24","FILE":"3910633","RA_OF_ASC_NODE":"240.0781","RCS_SIZE":"LARGE","DECAY_DATE":null,"MEAN_MOTION_DOT":"0.00001519","MEAN_MOTION":"15.08846759"},{"MEAN_MOTION_DOT":"0.00000774","MEAN_MOTION":"15.08846782","FILE":"3910633","RA_OF_ASC_NODE":"235.0226","RCS_SIZE":"LARGE","DECAY_DATE":null,"LAUNCH_DATE":"2022-09-24","GP_ID":"232045221","MEAN_MOTION_DDOT":"0.0000000000000","PERIOD":"95.437","CLASSIFICATION_TYPE":"U","SITE":"AFETR","OBJECT_ID":"2022-119AU","TLE_LINE2":"2 53928  53.2162 235.0226 0001154  87.2940 272.8184 15.08846782 36908","SEMIMAJOR_AXIS":"6917.860","OBJECT_TYPE":"PAYLOAD","PERIAPSIS":"538.926","TIME_SYSTEM":"UTC","OBJECT_NAME":"STARLINK-5009","MEAN_ANOMALY":"272.8184","REV_AT_EPOCH":"3690","CENTER_NAME":"EARTH","COUNTRY_CODE":"US","ARG_OF_PERICENTER":"87.2940","ECCENTRICITY":"0.00011540","INCLINATION":"53.2162","NORAD_CAT_ID":"53928","REF_FRAME":"TEME","TLE_LINE1":"1 53928U 22119AU  23137.55150142  .00000774  00000-0  66698-4 0  9998","BSTAR":"0.00006669800000","EPHEMERIS_TYPE":"0","EPOCH":"2023-05-17T13:14:09.722688","MEAN_ELEMENT_THEORY":"SGP4","ELEMENT_SET_NO":"999","APOAPSIS":"540.523"}];
